NORAD_CAT_ID,OBJECT_NAME,OBJECT_TYPE,EPOCH,MEAN_MOTION,ECCENTRICITY,INCLINATION,RA_OF_ASC_NODE,ARG_OF_PERICENTER,MEAN_ANOMALY,BSTAR,MEAN_MOTION_DOT,MEAN_MOTION_DDOT,TLE_LINE0,TLE_LINE1,TLE_LINE2,SEMIMAJOR_AXIS,PERIOD,APOGEE,PERIGEE,DECAYED
51786.0,STARLINK-3638,PAYLOAD,2022-05-31 22:00:00,15.088479500000002,0.0001951,53.2165,54.1838,50.528,240.0043,-0.0010789,-0.00017422,0.0,0 STARLINK-3638,1 51786U 22017U   22151.91667824 -.00017422  00000-0 -10789-2 0  9998,2 51786  53.2165  54.1838 0001951  50.5280 240.0043 15.08847950  1300,6917.856,95.437,541.071,538.371,0.0
51786.0,STARLINK-3638,PAYLOAD,2022-06-01 14:00:01,15.08839221,0.0001854,53.2166,51.1899,52.0048,261.7328,0.0009223,0.00014421,0.0,0 STARLINK-3638,1 51786U 22017U   22152.58334491  .00014421  00000-0  92230-3 0  9999,2 51786  53.2166  51.1899 0001854  52.0048 261.7328 15.08839221 16074,6917.8830000000025,95.438,541.03,538.465,0.0
51786.0,STARLINK-3638,PAYLOAD,2022-06-01 20:00:01,15.08853188,0.000192,53.2169,50.0684,51.6469,180.7858,-0.0020569,-0.00032887,0.0,0 STARLINK-3638,1 51786U 22017U   22152.83334491 -.00032887  00000-0 -20569-2 0  9990,2 51786  53.2169  50.0684 0001920  51.6469 180.7858 15.08853188  1309,6917.84,95.437,541.033,538.377,0.0
51786.0,STARLINK-3638,PAYLOAD,2022-06-02 18:49:14,15.08840006,0.0001783,53.2166,45.799,49.9322,310.1826,0.00011548,1.55e-05,0.0,0 STARLINK-3638,1 51786U 22017U   22153.78419960  .00001550  00000-0  11548-3 0  9999,2 51786  53.2166  45.7990 0001783  49.9322 310.1826 15.08840006 16251,6917.88,95.438,540.979,538.512,0.0
51786.0,STARLINK-3638,PAYLOAD,2022-06-02 20:24:37,15.08843065,0.0001805,53.2166,45.5017,50.312,309.8032,0.00015206,2.133e-05,0.0,0 STARLINK-3638,1 51786U 22017U   22153.85043802  .00002133  00000-0  15206-3 0  9998,2 51786  53.2166  45.5017 0001805  50.3120 309.8032 15.08843065 14571,6917.871,95.437,540.985,538.487,0.0
51786.0,STARLINK-3638,PAYLOAD,2022-06-03 09:07:42,15.08851082,0.0001848,53.2165,43.1229,49.2731,310.8422,0.00016577,2.352e-05,0.0,0 STARLINK-3638,1 51786U 22017U   22154.38035154  .00002352  00000-0  16577-3 0  9993,2 51786  53.2165  43.1229 0001848  49.2731 310.8422 15.08851082 16341,6917.847,95.437,540.99,538.433,0.0
51786.0,STARLINK-3638,PAYLOAD,2022-06-03 17:04:38,15.0884182,0.0001891,53.2169,41.6365,52.1369,307.9794,1.2054e-05,-9.6e-07,0.0,0 STARLINK-3638,1 51786U 22017U   22154.71155518 -.00000096  00000-0  12054-4 0  9998,2 51786  53.2169  41.6365 0001891  52.1369 307.9794 15.08841820 16390,6917.875,95.437,541.048,538.432,0.0
51786.0,STARLINK-3638,PAYLOAD,2022-06-04 08:58:29,15.08840202,0.000195,53.218,38.663,53.8453,306.2719,0.00010465,1.378e-05,0.0,0 STARLINK-3638,1 51786U 22017U   22155.37395579  .00001378  00000-0  10465-3 0  9990,2 51786  53.2180  38.6630 0001950  53.8453 306.2719 15.08840202 14808,6917.88,95.438,541.094,538.396,0.0
51786.0,STARLINK-3638,PAYLOAD,2022-06-05 22:00:00,15.08848763,0.0001894,53.2161,31.7383,52.8477,51.647,-0.00099136,-0.00016035,0.0,0 STARLINK-3638,1 51786U 22017U   22156.91667824 -.00016035  00000-0 -99136-3 0  9996,2 51786  53.2161  31.7383 0001894  52.8477  51.6470 15.08848763 16726,6917.854,95.437,541.029,538.408,0.0
51786.0,STARLINK-3638,PAYLOAD,2022-06-06 14:00:01,15.0885167,0.0001751999999999,53.2159,28.7436,57.6052,70.0983,-0.00068674,-0.00011205,0.0,0 STARLINK-3638,1 51786U 22017U   22157.58334491 -.00011205  00000-0 -68674-3 0  9998,2 51786  53.2159  28.7436 0001752  57.6052  70.0983 15.08851670 16829,6917.845,95.437,540.922,538.498,0.0
51786.0,STARLINK-3638,PAYLOAD,2022-06-06 22:00:00,15.088318,0.0001851,53.2159,27.249,51.7177,87.5955,-0.00059134,-9.685e-05,0.0,0 STARLINK-3638,1 51786U 22017U   22157.91667824 -.00009685  00000-0 -59134-3 0  9994,2 51786  53.2159  27.2490 0001851  51.7177  87.5955 15.08831800  1308,6917.905,95.438,541.0509999999998,538.49,0.0
51786.0,STARLINK-3638,PAYLOAD,2022-06-07 14:00:01,15.08832155,0.000175,53.2161,24.2543,56.9668,105.5261,0.0021582,0.0003422,0.0,0 STARLINK-3638,1 51786U 22017U   22158.58334491  .00034220  00000-0  21582-2 0  9995,2 51786  53.2161  24.2543 0001750  56.9668 105.5261 15.08832155  1302,6917.904,95.438,540.98,538.559,0.0
51786.0,STARLINK-3638,PAYLOAD,2022-06-07 22:00:00,15.08859644,0.0001872,53.2161,22.7598,50.7586,123.342,-0.0026592,-0.00042384,0.0,0 STARLINK-3638,1 51786U 22017U   22158.91667824 -.00042384  00000-0 -26592-2 0  9999,2 51786  53.2161  22.7598 0001872  50.7586 123.3420 15.08859644 17035,6917.82,95.436,540.98,538.39,0.0
51786.0,STARLINK-3638,PAYLOAD,2022-06-08 14:00:01,15.08846223,0.0001783,53.2165,19.7651,56.6273,140.6633,-0.00053746,-8.833e-05,0.0,0 STARLINK-3638,1 51786U 22017U   22159.58334491 -.00008833  00000-0 -53746-3 0  9997,2 51786  53.2165  19.7651 0001783  56.6273 140.6633 15.08846223 17132,6917.861,95.437,540.96,538.493,0.0
51786.0,STARLINK-3638,PAYLOAD,2022-06-08 22:00:01,15.08817917,0.0002024,53.2167,18.2706,52.4564,156.4989,0.00042425,6.466e-05,0.0,0 STARLINK-3638,1 51786U 22017U   22159.91668981  .00006466  00000-0  42425-3 0  9998,2 51786  53.2167  18.2706 0002024  52.4564 156.4989 15.08817917  1304,6917.948,95.439,541.2130000000002,538.413,0.0
51786.0,STARLINK-3638,PAYLOAD,2022-06-09 14:00:01,15.08828325,0.0001905,53.2171,15.2762,58.865,173.178,0.0017087,0.00027002,0.0,0 STARLINK-3638,1 51786U 22017U   22160.58334491  .00027002  00000-0  17087-2 0  9993,2 51786  53.2171  15.2762 0001905  58.8650 173.1780 15.08828325  1301,6917.916,95.438,541.099,538.4630000000002,0.0
51786.0,STARLINK-3638,PAYLOAD,2022-06-09 22:00:00,15.08845173,0.0002039,53.2171,13.7817,52.8329,190.8036,-0.0016204999999999,-0.0002599,0.0,0 STARLINK-3638,1 51786U 22017U   22160.91667824 -.00025990  00000-0 -16205-2 0  9996,2 51786  53.2171  13.7817 0002039  52.8329 190.8036 15.08845173  1301,6917.865,95.437,541.14,538.319,0.0
51786.0,STARLINK-3638,PAYLOAD,2022-06-10 00:00:00,15.08831698,0.0002035,53.2172,13.4078,51.6311,284.9078,-0.00024113,-4.123e-05,0.0,0 STARLINK-3638,1 51786U 22017U   22161.00001157 -.00004123  00000-0 -24113-3 0  9991,2 51786  53.2172  13.4078 0002035  51.6311 284.9078 15.08831698 17341,6917.906,95.438,541.179,538.363,0.0
51786.0,STARLINK-3638,PAYLOAD,2022-06-10 14:00:01,15.08823565,0.0001828,53.2173,10.7869,58.6088,208.1972,0.001439,0.00022678,0.0,0 STARLINK-3638,1 51786U 22017U   22161.58334491  .00022678  00000-0  14390-2 0  9992,2 51786  53.2173  10.7869 0001828  58.6088 208.1972 15.08823565  1301,6917.931,95.439,541.06,538.531,0.0
51786.0,STARLINK-3638,PAYLOAD,2022-06-10 22:00:00,15.08825821,0.0001993,53.2171,9.2922,52.4634,225.9329,0.0010201,0.00015978,0.0,0 STARLINK-3638,1 51786U 22017U   22161.91667824  .00015978  00000-0  10201-2 0  9990,2 51786  53.2171   9.2922 0001993  52.4634 225.9329 15.08825821  1304,6917.924,95.438,541.1669999999998,538.41,0.0
51786.0,STARLINK-3638,PAYLOAD,2022-06-11 06:00:00,15.08857462,0.0001867,53.2169,7.7949,53.8228,236.1573,-0.0018529,-0.00029671,0.0,0 STARLINK-3638,1 51786U 22017U   22162.25001157 -.00029671  00000-0 -18529-2 0  9997,2 51786  53.2169   7.7949 0001867  53.8228 236.1573 15.08857462 17530,6917.8269999999975,95.436,540.984,538.4,0.0
51786.0,STARLINK-3638,PAYLOAD,2022-06-11 22:00:00,15.08820841,0.0001874,53.2169,4.8033,51.9353,261.2574,0.00090967,0.00014211,0.0,0 STARLINK-3638,1 51786U 22017U   22162.91667824  .00014211  00000-0  90967-3 0  9998,2 51786  53.2169   4.8033 0001874  51.9353 261.2574 15.08820841 17630,6917.939,95.439,541.1,538.508,0.0
51786.0,STARLINK-3638,PAYLOAD,2022-06-12 14:00:01,15.08844566,0.0001688,53.2166,1.8088,59.8365,276.5217,0.00070065,0.00010882,0.0,0 STARLINK-3638,1 51786U 22017U   22163.58334491  .00010882  00000-0  70065-3 0  9990,2 51786  53.2166   1.8088 0001688  59.8365 276.5217 15.08844566  1307,6917.866,95.437,540.899,538.564,0.0
51786.0,STARLINK-3638,PAYLOAD,2022-06-12 22:00:00,15.08847074,0.0001814,53.2163,0.3142,52.5084,295.4567,-0.00091596,-0.00014839,0.0,0 STARLINK-3638,1 51786U 22017U   22163.91667824 -.00014839  00000-0 -91596-3 0  9996,2 51786  53.2163   0.3142 0001814  52.5084 295.4567 15.08847074  1303,6917.859,95.437,540.979,538.469,0.0
51786.0,STARLINK-3638,PAYLOAD,2022-06-13 06:00:02,15.08837403,0.0001644,53.2159,358.8162,53.6149,306.0171,-0.0010468,-0.00016908,0.0,0 STARLINK-3638,1 51786U 22017U   22164.25002315 -.00016908  00000-0 -10468-2 0  9999,2 51786  53.2159 358.8162 0001644  53.6149 306.0171 15.08837403 17836,6917.888000000001,95.438,540.891,538.616,0.0
51786.0,STARLINK-3638,PAYLOAD,2022-06-13 14:00:01,15.08845074,0.00016,53.216,357.3196,58.3775,312.7737,0.00045277,6.926e-05,0.0,0 STARLINK-3638,1 51786U 22017U   22164.58334491  .00006926  00000-0  45277-3 0  9992,2 51786  53.2160 357.3196 0001600  58.3775 312.7737 15.08845074  1308,6917.865,95.437,540.837,538.623,0.0
51786.0,STARLINK-3638,PAYLOAD,2022-06-13 22:00:00,15.08844545,0.0001727,53.2158,355.8248,50.4104,332.3491,-0.00028188,-4.772e-05,0.0,0 STARLINK-3638,1 51786U 22017U   22164.91667824 -.00004772  00000-0 -28188-3 0  9999,2 51786  53.2158 355.8248 0001727  50.4104 332.3491 15.08844545 17938,6917.866,95.437,540.9259999999998,538.5369999999998,0.0
51786.0,STARLINK-3638,PAYLOAD,2022-06-14 14:00:01,15.08860532,0.0001520999999999,53.2156,352.83,54.1156,351.8274,-0.0016887999999999,-0.0002708,0.0,0 STARLINK-3638,1 51786U 22017U   22165.58334491 -.00027080  00000-0 -16888-2 0  9994,2 51786  53.2156 352.8300 0001521  54.1156 351.8274 15.08860532  1305,6917.818,95.436,540.735,538.63,0.0
51786.0,STARLINK-3638,PAYLOAD,2022-06-14 22:00:00,15.08805633,0.0001634,53.2157,351.3352,46.412,11.1383,0.002167,0.00034336,0.0,0 STARLINK-3638,1 51786U 22017U   22165.91667824  .00034336  00000-0  21670-2 0  9995,2 51786  53.2157 351.3352 0001634  46.4120  11.1383 15.08805633  1305,6917.985,95.44,540.981,538.72,0.0
